[{"OBJECT_NAME":"STARLINK-6028","OBJECT_ID":"2023-078BD","EPOCH":"2026-03-09T21:12:15.545664","MEAN_MOTION":14.98325669,"ECCENTRICITY":0.00027686,"INCLINATION":69.9992,"RA_OF_ASC_NODE":343.7857,"ARG_OF_PERICENTER":205.7559,"MEAN_ANOMALY":154.3463,"EPHEMERIS_TYPE":0,"CLASSIFICATION_TYPE":"U","NORAD_CAT_ID":56818,"ELEMENT_SET_NO":999,"REV_AT_EPOCH":15340,"BSTAR":0.0002752239,"MEAN_MOTION_DOT":3.192e-5,"MEAN_MOTION_DDOT":0},{"OBJECT_NAME":"SL-16 DEB","OBJECT_ID":"1992-093HT","EPOCH":"2026-03-09T09:11:57.457824","MEAN_MOTION":14.90422202,"ECCENTRICITY":0.00468492,"INCLINATION":71.3296,"RA_OF_ASC_NODE":183.274,"ARG_OF_PERICENTER":9.9042,"MEAN_ANOMALY":350.3034,"EPHEMERIS_TYPE":0,"CLASSIFICATION_TYPE":"U","NORAD_CAT_ID":22571,"ELEMENT_SET_NO":999,"REV_AT_EPOCH":69043,"BSTAR":0.0054819504,"MEAN_MOTION_DOT":0.00054956,"MEAN_MOTION_DDOT":0}]
